{"type": "FeatureCollection", "features": [{"type": "Feature", "properties": {"norad_id": 26766, "name": "INTELSAT 10 (IS-10)", "group": "intelsat", "lat": 0.221567309313665, "lon": -120.391895299917, "alt_km": 36098.625622498366, "timestamp": "2025-12-04T23:34:05.398171+00:00", "meta": {"OBJECT_NAME": "INTELSAT 10 (IS-10)", "OBJECT_ID": "2001-019A", "EPOCH": "2025-12-04T12:50:24.704160", "MEAN_MOTION": 0.99078419, "ECCENTRICITY": 0.0007804, "INCLINATION": 8.6091, "RA_OF_ASC_NODE": 61.2371, "ARG_OF_PERICENTER": 219.0537, "MEAN_ANOMALY": 159.9231, "EPHEMERIS_TYPE": 0, "CLASSIFICATION_TYPE": "U", "NORAD_CAT_ID": 26766, "ELEMENT_SET_NO": 999, "REV_AT_EPOCH": 4365, "BSTAR": 0, "MEAN_MOTION_DOT": -1.87e-06, "MEAN_MOTION_DDOT": 0}, "tle": {"line1": "1 26766U 01019A   25338.53500815 -.00000187  00000+0  00000+0 0  9991", "line2": "2 26766   8.6091  61.2371 0007804 219.0537 159.9231  0.99078419 43654"}}, "geometry": {"type": "Point", "coordinates": [-120.391895299917, 0.221567309313665]}}, {"type": "Feature", "properties": {"norad_id": 26900, "name": "INTELSAT 902 (IS-902)", "group": "intelsat", "lat": -4.683867228599701, "lon": 17.58370714406459, "alt_km": 35798.718036215476, "timestamp": "2025-12-04T23:34:05.398196+00:00", "meta": {"OBJECT_NAME": "INTELSAT 902 (IS-902)", "OBJECT_ID": "2001-039A", "EPOCH": "2025-12-01T16:59:59.311968", "MEAN_MOTION": 1.00270327, "ECCENTRICITY": 0.00043097, "INCLINATION": 5.6187, "RA_OF_ASC_NODE": 74.2002, "ARG_OF_PERICENTER": 175.119, "MEAN_ANOMALY": 26.3816, "EPHEMERIS_TYPE": 0, "CLASSIFICATION_TYPE": "U", "NORAD_CAT_ID": 26900, "ELEMENT_SET_NO": 999, "REV_AT_EPOCH": 8871, "BSTAR": 0, "MEAN_MOTION_DOT": -2.63e-06, "MEAN_MOTION_DDOT": 0}, "tle": {"line1": "1 26900U 01039A   25335.70832537 -.00000263  00000+0  00000+0 0  9993", "line2": "2 26900   5.6187  74.2002 0004309 175.1190  26.3816  1.00270327 88713"}}, "geometry": {"type": "Point", "coordinates": [17.58370714406459, -4.683867228599701]}}, {"type": "Feature", "properties": {"norad_id": 27380, "name": "INTELSAT 904 (IS-904)", "group": "intelsat", "lat": -3.704982787485858, "lon": 36.23665326350268, "alt_km": 35790.80469394513, "timestamp": "2025-12-04T23:34:05.398211+00:00", "meta": {"OBJECT_NAME": "INTELSAT 904 (IS-904)", "OBJECT_ID": "2002-007A", "EPOCH": "2025-12-04T11:51:49.343904", "MEAN_MOTION": 1.0026902, "ECCENTRICITY": 0.0001665, "INCLINATION": 6.4331, "RA_OF_ASC_NODE": 71.5255, "ARG_OF_PERICENTER": 205.7795, "MEAN_ANOMALY": 302.7127, "EPHEMERIS_TYPE": 0, "CLASSIFICATION_TYPE": "U", "NORAD_CAT_ID": 27380, "ELEMENT_SET_NO": 999, "REV_AT_EPOCH": 4981, "BSTAR": 0, "MEAN_MOTION_DOT": -2.15e-06, "MEAN_MOTION_DDOT": 0}, "tle": {"line1": "1 27380U 02007A   25338.49432111 -.00000215  00000+0  00000+0 0  9992", "line2": "2 27380   6.4331  71.5255 0001665 205.7795 302.7127  1.00269020 49811"}}, "geometry": {"type": "Point", "coordinates": [36.23665326350268, -3.704982787485858]}}, {"type": "Feature", "properties": {"norad_id": 27426, "name": "DIRECTV 5 (TEMPO 1)", "group": "intelsat", "lat": -3.7909587402145815, "lon": -42.605378692453634, "alt_km": 35775.965371373546, "timestamp": "2025-12-04T23:34:05.398225+00:00", "meta": {"OBJECT_NAME": "DIRECTV 5 (TEMPO 1)", "OBJECT_ID": "2002-023A", "EPOCH": "2025-12-04T09:56:32.681760", "MEAN_MOTION": 1.00271251, "ECCENTRICITY": 0.0003839, "INCLINATION": 4.3795, "RA_OF_ASC_NODE": 77.7499, "ARG_OF_PERICENTER": 191.2769, "MEAN_ANOMALY": 203.4731, "EPHEMERIS_TYPE": 0, "CLASSIFICATION_TYPE": "U", "NORAD_CAT_ID": 27426, "ELEMENT_SET_NO": 999, "REV_AT_EPOCH": 8617, "BSTAR": 0, "MEAN_MOTION_DOT": -4.4e-07, "MEAN_MOTION_DDOT": 0}, "tle": {"line1": "1 27426U 02023A   25338.41426715 -.00000044  00000+0  00000+0 0  9996", "line2": "2 27426   4.3795  77.7499 0003839 191.2769 203.4731  1.00271251 86173"}}, "geometry": {"type": "Point", "coordinates": [-42.605378692453634, -3.7909587402145815]}}, {"type": "Feature", "properties": {"norad_id": 27438, "name": "INTELSAT 905 (IS-905)", "group": "intelsat", "lat": -3.89474615933977, "lon": -69.76258253963108, "alt_km": 35774.436157923985, "timestamp": "2025-12-04T23:34:05.398237+00:00", "meta": {"OBJECT_NAME": "INTELSAT 905 (IS-905)", "OBJECT_ID": "2002-027A", "EPOCH": "2025-12-03T09:40:44.149728", "MEAN_MOTION": 1.00273288, "ECCENTRICITY": 0.00031296, "INCLINATION": 6.2606, "RA_OF_ASC_NODE": 72.1621, "ARG_OF_PERICENTER": 189.1417, "MEAN_ANOMALY": 179.1858, "EPHEMERIS_TYPE": 0, "CLASSIFICATION_TYPE": "U", "NORAD_CAT_ID": 27438, "ELEMENT_SET_NO": 999, "REV_AT_EPOCH": 4940, "BSTAR": 0, "MEAN_MOTION_DOT": 1.09e-06, "MEAN_MOTION_DDOT": 0}, "tle": {"line1": "1 27438U 02027A   25337.40328877  .00000109  00000+0  00000+0 0  9992", "line2": "2 27438   6.2606  72.1621 0003129 189.1417 179.1858  1.00273288 49408"}}, "geometry": {"type": "Point", "coordinates": [-69.76258253963108, -3.89474615933977]}}, {"type": "Feature", "properties": {"norad_id": 27445, "name": "GALAXY 3C (G-3C)", "group": "intelsat", "lat": -3.0869074838865953, "lon": -27.323931415407536, "alt_km": 35791.60606246492, "timestamp": "2025-12-04T23:34:05.398250+00:00", "meta": {"OBJECT_NAME": "GALAXY 3C (G-3C)", "OBJECT_ID": "2002-030A", "EPOCH": "2025-12-04T13:16:29.706240", "MEAN_MOTION": 1.00270508, "ECCENTRICITY": 0.0001286, "INCLINATION": 3.2425, "RA_OF_ASC_NODE": 80.5894, "ARG_OF_PERICENTER": 100.4367, "MEAN_ANOMALY": 356.8628, "EPHEMERIS_TYPE": 0, "CLASSIFICATION_TYPE": "U", "NORAD_CAT_ID": 27445, "ELEMENT_SET_NO": 999, "REV_AT_EPOCH": 4454, "BSTAR": 0, "MEAN_MOTION_DOT": -1.39e-06, "MEAN_MOTION_DDOT": 0}, "tle": {"line1": "1 27445U 02030A   25338.55312160 -.00000139  00000+0  00000+0 0  9993", "line2": "2 27445   3.2425  80.5894 0001286 100.4367 356.8628  1.00270508 44540"}}, "geometry": {"type": "Point", "coordinates": [-27.323931415407536, -3.0869074838865953]}}, {"type": "Feature", "properties": {"norad_id": 27513, "name": "INTELSAT 906 (IS-906)", "group": "intelsat", "lat": 4.428774654914531, "lon": 131.5441059258157, "alt_km": 35803.811021643865, "timestamp": "2025-12-04T23:34:05.398262+00:00", "meta": {"OBJECT_NAME": "INTELSAT 906 (IS-906)", "OBJECT_ID": "2002-041A", "EPOCH": "2025-12-04T05:28:17.650848", "MEAN_MOTION": 1.002733, "ECCENTRICITY": 0.0006118, "INCLINATION": 5.3074, "RA_OF_ASC_NODE": 75.3323, "ARG_OF_PERICENTER": 192.8955, "MEAN_ANOMALY": 311.2929, "EPHEMERIS_TYPE": 0, "CLASSIFICATION_TYPE": "U", "NORAD_CAT_ID": 27513, "ELEMENT_SET_NO": 999, "REV_AT_EPOCH": 8507, "BSTAR": 0, "MEAN_MOTION_DOT": 2.5e-07, "MEAN_MOTION_DDOT": 0}, "tle": {"line1": "1 27513U 02041A   25338.22798207  .00000025  00000+0  00000+0 0  9998", "line2": "2 27513   5.3074  75.3323 0006118 192.8955 311.2929  1.00273300 85070"}}, "geometry": {"type": "Point", "coordinates": [131.5441059258157, 4.428774654914531]}}, {"type": "Feature", "properties": {"norad_id": 27954, "name": "GALAXY 13 (HORIZONS-1)", "group": "intelsat", "lat": -0.19575139918202394, "lon": -82.43434678839803, "alt_km": 35777.95889501314, "timestamp": "2025-12-04T23:34:05.398275+00:00", "meta": {"OBJECT_NAME": "GALAXY 13 (HORIZONS-1)", "OBJECT_ID": "2003-044A", "EPOCH": "2025-12-04T13:11:38.704992", "MEAN_MOTION": 1.00273025, "ECCENTRICITY": 0.0002064, "INCLINATION": 0.9144, "RA_OF_ASC_NODE": 86.575, "ARG_OF_PERICENTER": 163.3014, "MEAN_ANOMALY": 231.6575, "EPHEMERIS_TYPE": 0, "CLASSIFICATION_TYPE": "U", "NORAD_CAT_ID": 27954, "ELEMENT_SET_NO": 999, "REV_AT_EPOCH": 4462, "BSTAR": 0, "MEAN_MOTION_DOT": 1.47e-06, "MEAN_MOTION_DDOT": 0}, "tle": {"line1": "1 27954U 03044A   25338.54975353  .00000147  00000+0  00000+0 0  9990", "line2": "2 27954   0.9144  86.5750 0002064 163.3014 231.6575  1.00273025 44623"}}, "geometry": {"type": "Point", "coordinates": [-82.43434678839803, -0.19575139918202394]}}, {"type": "Feature", "properties": {"norad_id": 28358, "name": "INTELSAT 10-02", "group": "intelsat", "lat": 0.018747023455029186, "lon": 66.56230427773806, "alt_km": 35790.374314347326, "timestamp": "2025-12-04T23:34:05.398286+00:00", "meta": {"OBJECT_NAME": "INTELSAT 10-02", "OBJECT_ID": "2004-022A", "EPOCH": "2025-12-04T13:43:19.636320", "MEAN_MOTION": 1.00270533, "ECCENTRICITY": 0.0001106, "INCLINATION": 0.0398, "RA_OF_ASC_NODE": 80.5364, "ARG_OF_PERICENTER": 198.4506, "MEAN_ANOMALY": 359.4943, "EPHEMERIS_TYPE": 0, "CLASSIFICATION_TYPE": "U", "NORAD_CAT_ID": 28358, "ELEMENT_SET_NO": 999, "REV_AT_EPOCH": 7860, "BSTAR": 0, "MEAN_MOTION_DOT": 4e-08, "MEAN_MOTION_DDOT": 0}, "tle": {"line1": "1 28358U 04022A   25338.57175505  .00000004  00000+0  00000+0 0  9992", "line2": "2 28358   0.0398  80.5364 0001106 198.4506 359.4943  1.00270533 78604"}}, "geometry": {"type": "Point", "coordinates": [66.56230427773806, 0.018747023455029186]}}, {"type": "Feature", "properties": {"norad_id": 28626, "name": "XM-3 (RHYTHM)", "group": "intelsat", "lat": 0.07399122560271625, "lon": -141.33820236607247, "alt_km": 36161.65763821204, "timestamp": "2025-12-04T23:34:05.398315+00:00", "meta": {"OBJECT_NAME": "XM-3 (RHYTHM)", "OBJECT_ID": "2005-008A", "EPOCH": "2025-12-04T12:44:32.764992", "MEAN_MOTION": 0.98954878, "ECCENTRICITY": 0.0001002, "INCLINATION": 0.1521, "RA_OF_ASC_NODE": 80.9228, "ARG_OF_PERICENTER": 260.4132, "MEAN_ANOMALY": 76.6625, "EPHEMERIS_TYPE": 0, "CLASSIFICATION_TYPE": "U", "NORAD_CAT_ID": 28626, "ELEMENT_SET_NO": 999, "REV_AT_EPOCH": 4066, "BSTAR": 0, "MEAN_MOTION_DOT": -2.56e-06, "MEAN_MOTION_DDOT": 0}, "tle": {"line1": "1 28626U 05008A   25338.53093478 -.00000256  00000+0  00000+0 0  9999", "line2": "2 28626   0.1521  80.9228 0001002 260.4132  76.6625  0.98954878 40661"}}, "geometry": {"type": "Point", "coordinates": [-141.33820236607247, 0.07399122560271625]}}]}